PROGRESS-MS 32          
1 65586U 25204A   25333.12495806  .00008872  00000+0  16795-3 0  9999
2 65586  51.6312 209.8765 0003736 181.3383 178.7596 15.49180644   277
CYGNUS NG-23            
1 65616U 25208A   25333.12495806  .00008872  00000+0  16795-3 0  9997
2 65616  51.6312 209.8765 0003736 181.3383 178.7596 15.49180644   226
DRAGONFLY               
1 65729U 98067XH  25334.06728159  .00136962  00000+0  12301-2 0  9999
2 65729  51.6265 200.4173 0006451 201.2290 158.8439 15.67290907 11179
1998-067XJ              
1 65730U 98067XJ  25334.03428924  .01821158  22983-2  27121-2 0  9997
2 65730  51.6143 195.6214 0011481 220.5612 139.4546 16.04584786 11232
1998-067XK              
1 65731U 98067XK  25334.02076613  .00087103  00000+0  94044-3 0  9996
2 65731  51.6290 201.6160 0005993 174.9051 185.2005 15.62876971 11157
RSP-03                  
1 65732U 98067XL  25334.04553845  .00111988  00000+0  11085-2 0  9998
2 65732  51.6275 201.0258 0006911 178.3876 181.7143 15.64963038 11176
GHS-01                  
1 65733U 98067XM  25334.03745505  .00165964  00000+0  13783-2 0  9994
2 65733  51.6289 200.2229 0006879 199.9405 160.1324 15.69100613 11181
YOTSUBA-KULOVER         
1 65941U 98067XN  25333.05283860  .00061013  00000+0  82249-3 0  9991
2 65941  51.6293 208.6482 0002373 148.1592 211.9543 15.57223707  7728
BOTAN                   
1 65942U 98067XP  25333.08330911  .00089783  00000+0  11006-2 0  9991
2 65942  51.6294 208.1026 0004672 152.2656 207.8587 15.59576719  7739
E-KAGAKU-1              
1 65943U 98067XQ  25332.86008070  .00058470  00000+0  79010-3 0  9994
2 65943  51.6308 209.6132 0003811 129.5629 230.5700 15.57173177  7695
HRC MONOBLOCK CAMERA    
1 66052U 98067XR  25334.04299049  .00038473  00000+0  61067-3 0  9990
2 66052  51.6304 204.7561 0004565 133.5581 226.5789 15.52962161  6868
HTV-X1                  
1 66174U 25241A   25333.12495806  .00008872  00000+0  16795-3 0  9994
2 66174  51.6312 209.8765 0003736 181.3383 178.7596 15.49180644   518
